{
"type": "FeatureCollection",
"name": "CAUCE_TEMPISQUE",
"crs": { "type": "name", "properties": { "name": "urn:ogc:def:crs:OGC:1.3:CRS84" } },
"features": [
{ "type": "Feature", "properties": { "comid": 77057032, "sorder": 4 }, "geometry": { "type": "MultiLineString", "coordinates": [ [ [ -85.281666666666695, 10.294166667333306 ], [ -85.289166666666688, 10.300833333333358 ], [ -85.2925, 10.3 ], [ -85.301666666666705, 10.305 ], [ -85.30333333333337, 10.304166666666696 ], [ -85.3025, 10.305 ], [ -85.305, 10.305833333333361 ], [ -85.3075, 10.309166666666691 ], [ -85.3066666666667, 10.31 ], [ -85.3075, 10.3175 ], [ -85.314166666666694, 10.3225 ], [ -85.316666666666691, 10.320833333333361 ], [ -85.316666666666691, 10.321666666666694 ], [ -85.32, 10.320833333333361 ], [ -85.325, 10.324166666666692 ], [ -85.333333333333371, 10.323333333333359 ], [ -85.34, 10.325 ], [ -85.34583333333336, 10.323333333333359 ], [ -85.353333333333353, 10.315833333333359 ], [ -85.356666666666698, 10.315 ], [ -85.358333333333363, 10.316666666666691 ], [ -85.3575, 10.3225 ], [ -85.359166666666695, 10.325 ], [ -85.363333333333372, 10.325833333333357 ], [ -85.37, 10.324166666666692 ], [ -85.373333333333363, 10.325833333333357 ], [ -85.368333333333368, 10.328333333333362 ], [ -85.368333333333368, 10.330833333333359 ], [ -85.371666666666698, 10.336666666666694 ], [ -85.36583333333337, 10.34166666666669 ], [ -85.3675, 10.343333333333362 ], [ -85.374166666666696, 10.344166666666695 ], [ -85.384166666666687, 10.3375 ], [ -85.390833333333362, 10.33833333333336 ], [ -85.4, 10.3375 ], [ -85.406666666666695, 10.344166666666695 ], [ -85.4075, 10.3475 ] ] ] } },
{ "type": "Feature", "properties": { "comid": 77056946, "sorder": 3 }, "geometry": { "type": "MultiLineString", "coordinates": [ [ [ -85.576666666666696, 10.538333333333355 ], [ -85.581666666666692, 10.5425 ], [ -85.580833333333359, 10.545 ], [ -85.584166666666704, 10.551666666666691 ], [ -85.588333333333367, 10.555833333333361 ], [ -85.5875, 10.556666666666693 ], [ -85.59, 10.561666666666689 ], [ -85.593333333333362, 10.563333333333361 ], [ -85.59, 10.566666666666691 ], [ -85.590833333333364, 10.575 ], [ -85.586666666666702, 10.58 ], [ -85.5875, 10.5825 ], [ -85.586666666666702, 10.583333333333357 ], [ -85.590833333333364, 10.58833333333336 ], [ -85.588333333333367, 10.596666666666692 ], [ -85.590833333333364, 10.60333333333336 ], [ -85.589166666666699, 10.6075 ], [ -85.580833333333359, 10.615 ], [ -85.5725, 10.625 ], [ -85.574166666666684, 10.631666666666689 ], [ -85.5725, 10.633333333333361 ], [ -85.564166666666694, 10.631666666666689 ], [ -85.5625, 10.6325 ], [ -85.561666666666696, 10.635833333333359 ] ] ] } },
{ "type": "Feature", "properties": { "comid": 77056936, "sorder": 3 }, "geometry": { "type": "MultiLineString", "coordinates": [ [ [ -85.415833333333353, 10.365833333333356 ], [ -85.415, 10.3675 ], [ -85.413333333333355, 10.3675 ], [ -85.410833333333358, 10.364166666666691 ], [ -85.409166666666692, 10.365833333333356 ], [ -85.41, 10.3675 ], [ -85.409166666666692, 10.369166666666693 ], [ -85.404166666666697, 10.370833333333358 ], [ -85.405833333333362, 10.3725 ], [ -85.403333333333364, 10.375833333333361 ], [ -85.404166666666697, 10.3775 ], [ -85.401666666666699, 10.379166666666691 ], [ -85.4025, 10.381666666666689 ], [ -85.398333333333369, 10.384166666666694 ], [ -85.3975, 10.388333333333357 ], [ -85.394166666666692, 10.3875 ], [ -85.390833333333362, 10.393333333333359 ], [ -85.381666666666689, 10.391666666666694 ], [ -85.3825, 10.393333333333359 ], [ -85.380833333333356, 10.393333333333359 ], [ -85.376666666666694, 10.3975 ], [ -85.375, 10.4025 ], [ -85.373333333333363, 10.403333333333357 ] ] ] } },
{ "type": "Feature", "properties": { "comid": 77056938, "sorder": 3 }, "geometry": { "type": "MultiLineString", "coordinates": [ [ [ -85.381666666666689, 10.424166666666693 ], [ -85.384166666666687, 10.421666666666695 ], [ -85.388333333333364, 10.424166666666693 ], [ -85.389166666666696, 10.42333333333336 ], [ -85.388333333333364, 10.420833333333356 ], [ -85.393333333333359, 10.41583333333336 ], [ -85.395833333333371, 10.42 ], [ -85.401666666666699, 10.420833333333356 ], [ -85.400833333333367, 10.4225 ], [ -85.401666666666699, 10.425833333333358 ], [ -85.40833333333336, 10.4325 ], [ -85.41, 10.430833333333361 ], [ -85.410833333333358, 10.431666666666693 ], [ -85.4125, 10.429166666666696 ], [ -85.42, 10.433333333333358 ], [ -85.421666666666695, 10.431666666666693 ], [ -85.42833333333337, 10.434166666666691 ], [ -85.430833333333368, 10.438333333333361 ], [ -85.4325, 10.44 ], [ -85.433333333333366, 10.439166666666694 ], [ -85.435, 10.440833333333359 ], [ -85.435833333333363, 10.44 ], [ -85.4375, 10.443333333333356 ], [ -85.4425, 10.444166666666689 ], [ -85.444166666666689, 10.4425 ], [ -85.445833333333354, 10.444166666666689 ], [ -85.445, 10.445833333333361 ], [ -85.445833333333354, 10.446666666666694 ], [ -85.4475, 10.446666666666694 ], [ -85.453333333333362, 10.451666666666689 ], [ -85.4525, 10.454166666666694 ] ] ] } },
{ "type": "Feature", "properties": { "comid": 77056940, "sorder": 3 }, "geometry": { "type": "MultiLineString", "coordinates": [ [ [ -85.473333333333358, 10.451666666666689 ], [ -85.4725, 10.449166666666692 ] ] ] } },
{ "type": "Feature", "properties": { "comid": 77056954, "sorder": 3 }, "geometry": { "type": "MultiLineString", "coordinates": [ [ [ -85.525833333333367, 10.72 ], [ -85.528333333333364, 10.7225 ], [ -85.525, 10.725833333333355 ], [ -85.525, 10.7275 ], [ -85.5275, 10.73 ], [ -85.525833333333367, 10.733333333333356 ] ] ] } },
{ "type": "Feature", "properties": { "comid": 77056939, "sorder": 3 }, "geometry": { "type": "MultiLineString", "coordinates": [ [ [ -85.4525, 10.454166666666694 ], [ -85.4525, 10.455 ], [ -85.4575, 10.454166666666694 ], [ -85.459166666666704, 10.455833333333359 ], [ -85.46, 10.455 ], [ -85.466666666666697, 10.456666666666692 ], [ -85.468333333333362, 10.454166666666694 ], [ -85.47, 10.453333333333362 ], [ -85.471666666666692, 10.454166666666694 ], [ -85.473333333333358, 10.451666666666689 ] ] ] } },
{ "type": "Feature", "properties": { "comid": 77056937, "sorder": 3 }, "geometry": { "type": "MultiLineString", "coordinates": [ [ [ -85.373333333333363, 10.403333333333357 ], [ -85.3725, 10.40416666666669 ], [ -85.373333333333363, 10.405833333333362 ], [ -85.3691666666667, 10.40833333333336 ], [ -85.3691666666667, 10.410833333333358 ], [ -85.37, 10.41166666666669 ], [ -85.371666666666698, 10.41 ], [ -85.376666666666694, 10.41 ], [ -85.3775, 10.4125 ], [ -85.371666666666698, 10.413333333333362 ], [ -85.370833333333366, 10.415 ], [ -85.374166666666696, 10.415 ], [ -85.3725, 10.4175 ], [ -85.376666666666694, 10.4175 ], [ -85.378333333333359, 10.42333333333336 ], [ -85.381666666666689, 10.424166666666693 ] ] ] } },
{ "type": "Feature", "properties": { "comid": 77056953, "sorder": 3 }, "geometry": { "type": "MultiLineString", "coordinates": [ [ [ -85.561666666666696, 10.635833333333359 ], [ -85.5625, 10.638333333333357 ], [ -85.559166666666698, 10.641666666666694 ], [ -85.56, 10.643333333333359 ], [ -85.555, 10.6475 ], [ -85.555833333333368, 10.66583333333336 ], [ -85.550833333333358, 10.6675 ], [ -85.54833333333336, 10.67 ], [ -85.549166666666693, 10.674166666666693 ], [ -85.544166666666698, 10.679166666666696 ], [ -85.544166666666698, 10.684166666666691 ], [ -85.541666666666686, 10.685833333333356 ], [ -85.541666666666686, 10.690833333333359 ], [ -85.53333333333336, 10.699166666666692 ], [ -85.531666666666695, 10.708333333333357 ], [ -85.5275, 10.71 ], [ -85.529166666666697, 10.71666666666669 ], [ -85.525833333333367, 10.72 ] ] ] } },
{ "type": "Feature", "properties": { "comid": 77056941, "sorder": 3 }, "geometry": { "type": "MultiLineString", "coordinates": [ [ [ -85.4725, 10.449166666666692 ], [ -85.471666666666692, 10.441666666666691 ], [ -85.475833333333355, 10.4375 ], [ -85.476666666666688, 10.435 ], [ -85.4725, 10.43 ], [ -85.471666666666692, 10.430833333333361 ], [ -85.47083333333336, 10.426666666666691 ], [ -85.475833333333355, 10.420833333333356 ], [ -85.48583333333336, 10.418333333333358 ], [ -85.486666666666693, 10.42333333333336 ], [ -85.49, 10.42333333333336 ], [ -85.4941666666667, 10.420833333333356 ], [ -85.5, 10.420833333333356 ], [ -85.5025, 10.4225 ], [ -85.510833333333352, 10.424166666666693 ], [ -85.516666666666694, 10.424166666666693 ], [ -85.520833333333371, 10.421666666666695 ], [ -85.528333333333364, 10.4225 ], [ -85.529166666666697, 10.425 ], [ -85.526666666666699, 10.4275 ], [ -85.5275, 10.428333333333356 ], [ -85.526666666666699, 10.4325 ], [ -85.531666666666695, 10.435 ], [ -85.535833333333358, 10.441666666666691 ], [ -85.539166666666688, 10.443333333333356 ], [ -85.544166666666698, 10.4425 ], [ -85.550833333333358, 10.449166666666692 ], [ -85.5525, 10.456666666666692 ], [ -85.559166666666698, 10.465833333333357 ], [ -85.558333333333366, 10.46666666666669 ], [ -85.56, 10.468333333333362 ], [ -85.559166666666698, 10.47833333333336 ], [ -85.5625, 10.4825 ], [ -85.561666666666696, 10.484166666666695 ], [ -85.563333333333361, 10.484166666666695 ], [ -85.5625, 10.48583333333336 ], [ -85.568333333333356, 10.493333333333361 ], [ -85.570833333333354, 10.500833333333361 ], [ -85.569166666666689, 10.505 ], [ -85.570833333333354, 10.505833333333356 ], [ -85.57, 10.5075 ], [ -85.571666666666687, 10.508333333333361 ], [ -85.568333333333356, 10.515 ], [ -85.569166666666689, 10.52 ], [ -85.573333333333352, 10.524166666666694 ], [ -85.579166666666694, 10.525 ], [ -85.5825, 10.5275 ], [ -85.580833333333359, 10.531666666666695 ], [ -85.5775, 10.534166666666692 ], [ -85.576666666666696, 10.538333333333355 ] ] ] } },
{ "type": "Feature", "properties": { "comid": 77056925, "sorder": 4 }, "geometry": { "type": "MultiLineString", "coordinates": [ [ [ -85.4075, 10.3475 ], [ -85.405833333333362, 10.350833333333362 ], [ -85.405833333333362, 10.355833333333358 ], [ -85.4075, 10.358333333333356 ], [ -85.41, 10.358333333333356 ], [ -85.410833333333358, 10.3575 ], [ -85.41, 10.355833333333358 ], [ -85.413333333333355, 10.35333333333336 ], [ -85.413333333333355, 10.355 ], [ -85.415833333333353, 10.35666666666669 ], [ -85.415, 10.358333333333356 ], [ -85.415, 10.36 ], [ -85.416666666666686, 10.36083333333336 ], [ -85.416666666666686, 10.363333333333358 ], [ -85.415, 10.364166666666691 ], [ -85.415833333333353, 10.365833333333356 ] ] ] } }
]
}
