{"type":"FeatureCollection","features":[{"type":"Feature","geometry":{"type":"Polygon","coordinates":[[[-85.7625014617649,10.395832266505394],[-85.75844816990306,10.394672855326014],[-85.75354759817843,10.387970862505455],[-85.75478272032267,10.381175220910862],[-85.75895200262825,10.375467521731045],[-85.7577168215461,10.360337827582395],[-85.75472928189714,10.356248783786462],[-85.75895200262825,10.350469839124322],[-85.75761871306891,10.334140601952246],[-85.74616333439373,10.332472916123011],[-85.74223040343279,10.327081853658086],[-85.74645318444902,10.321302847484256],[-85.74521348524591,10.318672016086655],[-85.74223040343279,10.314582950265253],[-85.74521348524591,10.310493947503046],[-85.74645318444902,10.302008337563832],[-85.75007390679097,10.29704536171845],[-85.74196283423147,10.294726585502964],[-85.73389184420405,10.285424897009472],[-85.73688392769854,10.281327033354447],[-85.7381191263552,10.277006155649765],[-85.7410487531536,10.272992914544183],[-85.74166849871952,10.254166621969848],[-85.7392427704765,10.25451890401942],[-85.73575577212058,10.257979180554642],[-85.73090874972614,10.258688141004638],[-85.72742613357677,10.262148415361764],[-85.69583345584645,10.26250067946881],[-85.69367524339015,10.261880867766141],[-85.68966203353453,10.258951209789464],[-85.6853411799744,10.25771603741179],[-85.681327966742,10.254781933143196],[-85.67162947434859,10.253372875808985],[-85.67006429490186,10.24263984017529],[-85.66285837382117,10.240579749275113],[-85.6506181555925,10.227162324729443],[-85.64999836449971,10.224999610777491],[-85.65416758667371,10.224999603006747],[-85.66147163961783,10.22425496129637],[-85.66353170241531,10.217410269133342],[-85.67839386085758,10.215894126838892],[-85.67916532514641,10.208331559131341],[-85.67850982411093,10.206209021088565],[-85.67565603594485,10.202124474888036],[-85.67434501754029,10.193710115488514],[-85.65351209093961,10.1715617601157],[-85.65482307433439,10.16037833737783],[-85.65827887057506,10.155428714281843],[-85.65212087992938,10.150657463874277],[-85.63403473008962,10.149239554263847],[-85.63333467925241,10.1291645971529],[-85.63001709590348,10.128317388371467],[-85.62916539479069,10.124999866419511],[-85.62880871149873,10.122542838011418],[-85.62325714775483,10.117018057006476],[-85.61424077285335,10.116313493593967],[-85.61075827041513,10.112853235063339],[-85.60590673954015,10.112148701245836],[-85.60242416445173,10.108688480335625],[-85.59999842876633,10.108331716587008],[-85.59583360269117,10.108331711726462],[-85.59526732325426,10.118877467464173],[-85.57848771131614,10.13660245134014],[-85.57168316418492,10.138350415539986],[-85.57026516658505,10.143875174700574],[-85.55889886744639,10.156124349367353],[-85.55833258990002,10.158331623788191],[-85.55590681883989,10.158688309306894],[-85.55242428813509,10.162148577504304],[-85.54999856403265,10.162500873779965],[-85.5478759949374,10.163156374168718],[-85.54378700094259,10.16601020687618],[-85.5205639973744,10.16746831991733],[-85.5243453127485,10.172877248936928],[-85.52500082162209,10.174999763569224],[-85.52414909857657,10.17831732276316],[-85.52083157981569,10.179164523056986],[-85.50833268385793,10.179164535174008],[-85.50416788876468,10.179164566904687],[-85.49999860493487,10.17916456921181],[-85.49939664362134,10.181340540638288],[-85.49644027679724,10.185327043606303],[-85.49492421501047,10.190758201963044],[-85.48949299405992,10.192269876304822],[-85.48550658449122,10.195226250058532],[-85.48115891073486,10.196439092975563],[-85.4771725143631,10.199395457276852],[-85.47282936024014,10.200603925987563],[-85.46720641510231,10.204773161413007],[-85.4580697000047,10.203163460225971],[-85.46310405280124,10.19637217309071],[-85.46189560230566,10.19366110743338],[-85.4589392255824,10.189674632666703],[-85.45742761735237,10.184239007841123],[-85.45199199284785,10.182727362835246],[-85.43550663444965,10.167272126975186],[-85.42282940969072,10.166063704004618],[-85.41467370512242,10.158938088135818],[-85.41250218155886,10.158331630412057],[-85.41214539707165,10.160757373788002],[-85.40868515087793,10.164244401167037],[-85.40833290871673,10.166665664193003],[-85.40174233793128,10.167017918357496],[-85.39825976847288,10.170478187398054],[-85.39583403794965,10.170834912361958],[-85.39451861453313,10.175093401804332],[-85.38774525507847,10.179820062538338],[-85.36454448677043,10.178509083489292],[-85.35501540991339,10.17040683358636],[-85.35338786440329,10.191177316010767],[-85.34224898407506,10.200657439873527],[-85.3312127130403,10.19934639628022],[-85.31045561784643,10.17981998466249],[-85.30514927020127,10.178183529270063],[-85.30312936351554,10.17164646159689],[-85.2937117213638,10.170179437135712],[-85.2854534795842,10.163156379749632],[-85.28333536828521,10.162500864422043],[-85.28268877395338,10.164636745186305],[-85.2756434638951,10.172863851881871],[-85.27435924345626,10.181300441043806],[-85.2714741374657,10.185367160902477],[-85.27018997729186,10.189634522454291],[-85.2672692022775,10.193754746625665],[-85.27435924345626,10.202030838993906],[-85.2756434638951,10.210467448781337],[-85.27852400903271,10.214529627941761],[-85.27980821085855,10.219385615271051],[-85.2717997122136,10.22179801103119],[-85.27018997729186,10.227135566297425],[-85.26730938915439,10.231197761130263],[-85.26602513149265,10.240218572766029],[-85.27296794439413,10.24230987555134],[-85.28119949421819,10.249355267886655],[-85.28670200295828,10.25101407126632],[-85.28833406162796,10.261733732082634],[-85.30340133451553,10.263272064221093],[-85.30481040195669,10.277719580041897],[-85.29786310095037,10.27981092784137],[-85.29248545434108,10.283623403843627],[-85.29166495517704,10.291667636609848],[-85.28410681985147,10.290896193337845],[-85.28333536828521,10.283333607799069],[-85.27916615317397,10.283333592909438],[-85.2725755891522,10.28298134453468],[-85.26075893445928,10.27118700704761],[-85.25833316817852,10.270834745260162],[-85.25501564874637,10.271681965982413],[-85.25359764043415,10.27721126027188],[-85.25056541529567,10.281121885383202],[-85.24943279935584,10.29387935427312],[-85.24640066028755,10.297789994941075],[-85.24526803749052,10.300746351351279],[-85.24943279935584,10.306124047504374],[-85.25056541529567,10.323041923699982],[-85.25359764043415,10.32695695699605],[-85.25416837028013,10.337498328660017],[-85.26054494701772,10.338069067412313],[-85.26553016396494,10.341930656022935],[-85.26751892889615,10.33418518786754],[-85.27083206113664,10.333333486754194],[-85.2732578275908,10.333685744858048],[-85.2892437125695,10.349644880309647],[-85.30658961433832,10.350353882509786],[-85.31007662699352,10.353814107813134],[-85.31249789469378,10.354166415379208],[-85.31310879581329,10.369920401760446],[-85.32119762201611,10.37199836627657],[-85.31306864252728,10.381121650492409],[-85.31193155864605,10.389709883128392],[-85.30889940343467,10.39362498441544],[-85.3077668087214,10.40220875875748],[-85.3047345803927,10.406123870681894],[-85.30359755992397,10.410542817436312],[-85.29960213935229,10.41569751366588],[-85.29362254784247,10.417235986974962],[-85.28874871785229,10.421012766235291],[-85.28693388310963,10.425748325874475],[-85.29206182987707,10.432365672902236],[-85.29583424504501,10.433333283482302],[-85.30213496543621,10.433975433640299],[-85.3061971842816,10.436855949088065],[-85.31046902921484,10.438144677004482],[-85.31870054307603,10.445190046594623],[-85.3249834076136,10.447085192414159],[-85.32147407787404,10.452030270475953],[-85.32018982800453,10.469915727662093],[-85.33660823584476,10.471592408603954],[-85.33814221376196,10.479489414636038],[-85.33397741142655,10.485366509541],[-85.33268872406546,10.489633932148353],[-85.3256433042599,10.497865431167217],[-85.32435907353162,10.51282123588569],[-85.32852389990265,10.518698305234162],[-85.32980811155673,10.529489316959832],[-85.3256433042599,10.535366483818352],[-85.32435907353162,10.550322292959594],[-85.32852389990265,10.556199386483687],[-85.32980811155673,10.564636017876175],[-85.3368579616201,10.572863046995055],[-85.33814221376196,10.577134806669925],[-85.34102278064418,10.581197131083256],[-85.34231142888252,10.58963375012677],[-85.34523214179828,10.593753946353607],[-85.33321044818011,10.60704208295574],[-85.33750005204364,10.608335202637505],[-85.33835179781464,10.611648296272335],[-85.34166490089925,10.612499948119934],[-85.3410985518584,10.61887647913364],[-85.33806635959112,10.622791603351128],[-85.33693373861863,10.668876393090022],[-85.32556751158796,10.681121047728581],[-85.32433683208983,10.694935400551618],[-85.31862474077148,10.696402394931226],[-85.31470961782385,10.699434632501687],[-85.31029065774598,10.700567184220354],[-85.30513593642642,10.704562562368364],[-85.30359755992397,10.710542204614798],[-85.30056533721584,10.714457335723711],[-85.2994327277678,10.717605450165351],[-85.3086987790396,10.7280040911575],[-85.30195656678882,10.7297341973208],[-85.29680184927138,10.733729527961167],[-85.29526789430074,10.739709238749388],[-85.29223576252373,10.743624341814284],[-85.29166495517704,10.77499854070164],[-85.29251670519633,10.77831614713864],[-85.29583424504501,10.779167823840169],[-85.2966859302083,10.782480950970639],[-85.29999903542182,10.78333257395569],[-85.30065899698683,10.803354002379962],[-85.31049127630106,10.804785318133183],[-85.31450451832674,10.807714955663782],[-85.31666717491355,10.80833474074156],[-85.31751885128124,10.811647918155769],[-85.32414951462324,10.813351299848856],[-85.3250012321049,10.81666887481127],[-85.32588858471449,10.820124662767086],[-85.33554253185608,10.821399963303252],[-85.34362243795482,10.82860138120331],[-85.3624977730129,10.829167711697679],[-85.3688787514899,10.829734027543179],[-85.3782473448826,10.83808144589544],[-85.3797322463009,10.843878257074598],[-85.39526770087492,10.860287746561413],[-85.3964003691192,10.864711205048279],[-85.40776662326614,10.876955861524138],[-85.40918457011655,10.882480749785522],[-85.4147093741397,10.883898738766687],[-85.4352881369568,10.903599005102366],[-85.43749991110026,10.90416529722789],[-85.43785212116106,10.91075585499711],[-85.44337699355638,10.916307426823264],[-85.44583396393364,10.916668598588636],[-85.44583396393364,10.920833466011334],[-85.44583396393364,10.933332341929232],[-85.45416799202981,10.933332297228947],[-85.45416799202981,10.94166632867981],[-85.45748111797495,10.942518011969758],[-85.45833279354841,10.94583117075029],[-85.46492332518412,10.946187876415179],[-85.47047492892135,10.951708267636493],[-85.47083164370329,10.954165196931152],[-85.53333487837509,10.954165177529083],[-85.53395468733444,10.942656270750586],[-85.54081728348923,10.93693077842829],[-85.54387615669688,10.938067901911458],[-85.54779124437655,10.94110003802736],[-85.55637503441882,10.942232695945915],[-85.56136478683388,10.946098717119682],[-85.56339817015528,10.938161526883727],[-85.57721245448165,10.936930797051629],[-85.58258567635367,10.932766026936926],[-85.58554201356293,10.933898579385922],[-85.59091973599209,10.938067845662177],[-85.60320449756139,10.936832672596893],[-85.61193097597261,10.927209984924467],[-85.61250178586938,10.924998262367517],[-85.61214499117341,10.897574737849679],[-85.60451993527147,10.889922926744612],[-85.60381541706835,10.876741821134896],[-85.59964618025434,10.872545820660294],[-85.60035514766027,10.868407752934642],[-85.60381541706835,10.864925240508576],[-85.60451993527147,10.851744126123556],[-85.60798024880383,10.848257118052388],[-85.60833252083343,10.84583137372748],[-85.61054424965657,10.845265044768286],[-85.61964972949185,10.837153979692262],[-85.62140213175293,10.832587833125558],[-85.61723285579514,10.827210194765728],[-85.61610027383563,10.814457157143275],[-85.61306803957547,10.810542074696919],[-85.61193097597261,10.805382840532491],[-85.61887826519695,10.803599248131952],[-85.624358518283,10.799028626252401],[-85.62556692508868,10.782587909237584],[-85.62140213175293,10.777210272912084],[-85.62026508879575,10.75954774948723],[-85.62831375850175,10.757483180515914],[-85.62973617720571,10.751958406670386],[-85.6327639353605,10.748043263923861],[-85.63422207270521,10.742375730849304],[-85.64494616300085,10.740957738783615],[-85.64583351989153,10.737501983351915],[-85.64237330894066,10.736614599080529],[-85.64096416490607,10.725921703376358],[-85.63554192158894,10.721400120850266],[-85.62956230802399,10.719866235395152],[-85.62556692508868,10.714711522584219],[-85.62411325706613,10.709039512865251],[-85.61338913366801,10.707625980299673],[-85.61193097597261,10.70195402575735],[-85.60889881874999,10.698043395214954],[-85.60767253846177,10.684233573528806],[-85.60416771656257,10.68333276262951],[-85.60380647224027,10.680875858158263],[-85.59825937044678,10.675355428558216],[-85.59583360269117,10.674998721684577],[-85.59548140520991,10.664243417210082],[-85.5913121461906,10.660047353488855],[-85.59202106715614,10.647575266753993],[-85.6163142723237,10.623259761110301],[-85.61701886098979,10.618408282118807],[-85.62047907058496,10.614925729533994],[-85.62118807522745,10.60590945380041],[-85.6288131818186,10.59825762210425],[-85.62952215412247,10.589241320193405],[-85.63714724538917,10.581589519586903],[-85.63785618527528,10.560047560097379],[-85.64340779703109,10.554518264821239],[-85.64825928906356,10.553813759651607],[-85.65591109391019,10.546188693121303],[-85.66250168099079,10.54583199087033],[-85.66474901749207,10.545305797760319],[-85.67019806535656,10.540614791641724],[-85.67136186194358,10.531085729854276],[-85.67605283772018,10.525636722077335],[-85.68558192865152,10.524468398471347],[-85.68941675979468,10.52136488404975],[-85.71891377720904,10.520303623491682],[-85.72275300906591,10.517195580945929],[-85.72594127486668,10.516138796661686],[-85.73126099078473,10.52044627527791],[-85.73941667216897,10.513030843528185],[-85.74808074435981,10.511969579821697],[-85.75191997197328,10.508861592422722],[-85.75743149279747,10.50756397021258],[-85.758862815198,10.503149446280641],[-85.75322203000472,10.496590136296135],[-85.74775076042496,10.495305919568906],[-85.7397466298834,10.488028594169041],[-85.73525187468104,10.486971783815365],[-85.72980285411293,10.482280866056918],[-85.72863900865097,10.472751769932671],[-85.72405508100206,10.467423108214165],[-85.72083115750088,10.466665047198685],[-85.72083115750088,10.462500298154032],[-85.72083115750088,10.458335483314265],[-85.72140189551197,10.45612377897302],[-85.72859892957806,10.448043839627509],[-85.7297360049254,10.443624867870692],[-85.73276816464683,10.43970978227189],[-85.73390076716993,10.435290855873953],[-85.73693300121549,10.431375790512245],[-85.73806559280811,10.426956798214787],[-85.74109774454378,10.42304166587161],[-85.74255588283175,10.417374146747004],[-85.75324878910841,10.41596066707742],[-85.75776587571632,10.410542815335223],[-85.75889849018819,10.406123874007466],[-85.76193069799382,10.402208779069372],[-85.7625014617649,10.395832266505394]]]},"id":"00020000000000001d41","properties":{"SUB_AREA":3269.3,"COAST":0,"PFAF_ID":7711160,"DIST_MAIN":0.0,"HYBAS_ID":7070001650,"DIST_SINK":0.0,"NEXT_DOWN":0,"ORDER":1,"ENDO":0,"MAIN_BAS":7070001650,"NEXT_SINK":7070001650,"SORT":22,"UP_AREA":3269.7}}]}