{"type":"Feature","properties":{"nombre":"Área aportante aguas arriba de la estación Guardia","estacion":"Guardia 190302","fuente_geometria":"subcuencas_guardia.geojson","metodo":"Unión de las subcuencas aportantes"},"geometry":{"type":"MultiPolygon","coordinates":[[[[-85.66250168099079,10.54583199087033],[-85.66214043986767,10.543379481116334],[-85.64825928906356,10.529520587450907],[-85.63507369303885,10.528811557248842],[-85.62742634513674,10.521186509517443],[-85.62257483879677,10.520481943828575],[-85.61492303147473,10.512852435991386],[-85.58921632843,10.512147895264741],[-85.5753530135717,10.498257784958257],[-85.57464842513514,10.493410801843519],[-85.57118815295375,10.489923789277778],[-85.5708314750948,10.48333323203433],[-85.56339817015528,10.482673293865199],[-85.56250182628781,10.479168425096304],[-85.55833258990002,10.479168379076393],[-85.55501945978537,10.480015616465469],[-85.55416782003154,10.483333179238384],[-85.5547341415548,10.485544897258455],[-85.5577663063735,10.489455504230257],[-85.55889886744639,10.506377846112654],[-85.56193111088037,10.510288454887615],[-85.56311273945958,10.536588236461746],[-85.57119710323707,10.538661694374722],[-85.56306813832224,10.547789520200038],[-85.56193111088037,10.55220850013625],[-85.55889886744639,10.556123536708725],[-85.5577663063735,10.564711757577857],[-85.5547341415548,10.568622431688297],[-85.55360149252911,10.577210636478233],[-85.5505693278914,10.581121313851234],[-85.54903091417121,10.587105426536747],[-85.54387615669688,10.591100753696553],[-85.53945723081661,10.59223332799093],[-85.5355421638918,10.59526555724549],[-85.53112318082907,10.596402660068852],[-85.52721253539137,10.59943485289984],[-85.51445505429436,10.600567385769963],[-85.50637511386182,10.607764453801765],[-85.49583387292512,10.608335172369381],[-85.49526755960738,10.610542456230686],[-85.49223532740085,10.614457557062286],[-85.49102690002753,10.632427662262609],[-85.4841821719929,10.634184603820547],[-85.48276422348007,10.639709395407458],[-85.4797319958768,10.643624513346309],[-85.47859941826044,10.648043462433701],[-85.47140246110963,10.656123367886426],[-85.47083164370329,10.658335107447504],[-85.49387632037926,10.658901399042236],[-85.4977913543619,10.66193356791158],[-85.50491254944723,10.663066173058587],[-85.51029026127397,10.658901362862863],[-85.53137735389791,10.657764348156125],[-85.53528793196094,10.654732142766663],[-85.54878570012832,10.653599538947246],[-85.54999856403265,10.65833506356901],[-85.55416782003154,10.658335109332207],[-85.55416782003154,10.662499849402549],[-85.5616011485402,10.663159863857391],[-85.56306813832224,10.668876425270723],[-85.57026516658505,10.676956252852237],[-85.57171433285957,10.682592575225243],[-85.57991467553386,10.683899147447793],[-85.58528786163544,10.679734307178045],[-85.58971132994353,10.678597274325348],[-85.5936218927497,10.675569466850702],[-85.59583360269117,10.674998721684577],[-85.59548140520991,10.664243417210082],[-85.5913121461906,10.660047353488855],[-85.59202106715614,10.647575266753993],[-85.6163142723237,10.623259761110301],[-85.61701886098979,10.618408282118807],[-85.62047907058496,10.614925729533994],[-85.62118807522745,10.60590945380041],[-85.6288131818186,10.59825762210425],[-85.62952215412247,10.589241320193405],[-85.63714724538917,10.581589519586903],[-85.63785618527528,10.560047560097379],[-85.64340779703109,10.554518264821239],[-85.64825928906356,10.553813759651607],[-85.65591109391019,10.546188693121303],[-85.66250168099079,10.54583199087033]]],[[[-85.60416771656257,10.68333276262951],[-85.60380647224027,10.680875858158263],[-85.59825937044678,10.675355428558216],[-85.59583360269117,10.674998721684577],[-85.5936218927497,10.675569466850702],[-85.58971132994353,10.678597274325348],[-85.58528786163544,10.679734307178045],[-85.57991467553386,10.683899147447793],[-85.57171433285957,10.682592575225243],[-85.57026516658505,10.676956252852237],[-85.56306813832224,10.668876425270723],[-85.5616011485402,10.663159863857391],[-85.55416782003154,10.662499849402549],[-85.54779124437655,10.66306616116652],[-85.54387615669688,10.666098395076956],[-85.53945723081661,10.667235463502534],[-85.53137735389791,10.674432394248925],[-85.52695834262563,10.675569500746349],[-85.52304330792474,10.678597211936683],[-85.51029026127398,10.67973427193221],[-85.50637511386182,10.682766463547532],[-85.49362212738194,10.683899123628395],[-85.48971150834574,10.686931316985852],[-85.4811232855091,10.688068392234937],[-85.46887853257502,10.699434576775136],[-85.46029037699999,10.700567222135561],[-85.45637521786927,10.70359937120475],[-85.44779144911045,10.704731985714702],[-85.44387640792728,10.707764224388729],[-85.43945746165626,10.708901245801142],[-85.43137754390244,10.716098294566365],[-85.42278933725906,10.717235382311268],[-85.41887870800443,10.720267548621578],[-85.41029041064282,10.721400164721713],[-85.40637533616925,10.72443235286167],[-85.4019564026927,10.72556942481043],[-85.39804576790053,10.728601574900683],[-85.39251643169239,10.730019608205367],[-85.39109844334476,10.735544401569936],[-85.38806627710072,10.73945505810187],[-85.38693367143848,10.743878499053109],[-85.36306854978173,10.76862206668109],[-85.36193148277556,10.775747685986026],[-85.36619888836418,10.781250233640607],[-85.36306854978173,10.785290173735566],[-85.3624977730129,10.81249956384665],[-85.36909278809557,10.812147295947579],[-85.37674018285387,10.804517822957713],[-85.3899257253957,10.803813249096901],[-85.39340827785608,10.800352962177708],[-85.41909270516032,10.799648474971294],[-85.42257527596809,10.796188222486217],[-85.42742226981447,10.79547918968229],[-85.43507412504907,10.787854092530448],[-85.4399256671613,10.787145108096011],[-85.44340815790346,10.783684861545742],[-85.45242452441002,10.782980343456483],[-85.46041523131561,10.77501193090327],[-85.46424112488704,10.778815496681377],[-85.48575625485809,10.779520109885006],[-85.4892432623631,10.78298035099185],[-85.4933857810698,10.783684841781644],[-85.52257503739158,10.754517868523212],[-85.53749969374593,10.754165656548846],[-85.54081728348923,10.755017288477784],[-85.5416645004132,10.758334876588751],[-85.54498206849676,10.757483150838942],[-85.54583377550672,10.754165652879117],[-85.54825945224336,10.753813379536393],[-85.55174201768328,10.750353104924693],[-85.5607583297552,10.749648511142906],[-85.56424086891468,10.74618827115336],[-85.56909241079603,10.745479302191862],[-85.57674426392516,10.7378542342409],[-85.58159129811128,10.737145271677482],[-85.5913121461906,10.727451188847876],[-85.59202106715614,10.718408111433998],[-85.59548140520991,10.71492556128545],[-85.59618587632697,10.701744403990254],[-85.59964618025434,10.698257375120267],[-85.60035514766027,10.693410363861464],[-85.60381541706835,10.689923381148215],[-85.60416771656257,10.68333276262951]]],[[[-85.64583351989153,10.737501983351915],[-85.64237330894066,10.736614599080529],[-85.64096416490607,10.725921703376358],[-85.63554192158894,10.721400120850266],[-85.62956230802399,10.719866235395152],[-85.62556692508868,10.714711522584219],[-85.62411325706613,10.709039512865251],[-85.61338913366801,10.707625980299673],[-85.61193097597261,10.70195402575735],[-85.60889881874999,10.698043395214954],[-85.60767253846177,10.684233573528806],[-85.60416771656257,10.68333276262951],[-85.60381541706835,10.689923381148215],[-85.60035514766027,10.693410363861464],[-85.59964618025434,10.698257375120267],[-85.59618587632697,10.701744403990254],[-85.59548140520991,10.71492556128545],[-85.59202106715614,10.718408111433998],[-85.5913121461906,10.727451188847876],[-85.58159129811128,10.737145271677482],[-85.57674426392516,10.7378542342409],[-85.56909241079603,10.745479302191862],[-85.56424086891468,10.74618827115336],[-85.5607583297552,10.749648511142906],[-85.55174201768328,10.750353104924693],[-85.54825945224336,10.753813379536393],[-85.54583377550672,10.754165652879117],[-85.54498206849676,10.757483150838942],[-85.5416645004132,10.758334876588751],[-85.53820869837776,10.75922226912967],[-85.53679067975482,10.769946369173992],[-85.53112318082907,10.771400086716122],[-85.52596843303706,10.775395385929334],[-85.52443450077173,10.781375073206192],[-85.52140233932343,10.785290160399219],[-85.5201716193049,10.799099951589032],[-85.51445505429436,10.800567062541502],[-85.50637511386182,10.807764050851196],[-85.49362212738194,10.808901069913524],[-85.48846740402286,10.812896436491405],[-85.48693350386995,10.818876117300752],[-85.48390127472135,10.822791157822598],[-85.48276422348007,10.827210172573611],[-85.4797319958768,10.831120747170486],[-85.47859941826044,10.843878306420251],[-85.47460402373316,10.849033012143028],[-85.46862437909012,10.850566931367897],[-85.45506873800154,10.863146080998309],[-85.45359722856014,10.868876000178151],[-85.44629322189094,10.877076299058574],[-85.44943245566628,10.881120691694418],[-85.44999869917947,10.908334580075547],[-85.45331632952028,10.907482881415815],[-85.45473426463742,10.901958081478632],[-85.45776647995999,10.898042946682297],[-85.45889910120293,10.889454723407097],[-85.46725101711073,10.880086169015936],[-85.47304338005874,10.878601326840029],[-85.4811232855091,10.871399870720536],[-85.48971150834574,10.870267246170837],[-85.4977913543619,10.863065771363795],[-85.50331622895162,10.861647790049952],[-85.50473418713281,10.856122980740677],[-85.51768345292824,10.842277488547552],[-85.54241359086217,10.841100217237255],[-85.54791613162526,10.84536317622732],[-85.55195611660889,10.842232886327105],[-85.55416782003154,10.841666581901599],[-85.55416782003154,10.837501762978874],[-85.56054434449241,10.836931027393755],[-85.56445491794305,10.833898817844672],[-85.5840794853557,10.832766230472863],[-85.58945711933727,10.836930991943083],[-85.60326695510356,10.83816170359219],[-85.60501942434009,10.844984125348526],[-85.60833252083343,10.84583137372748],[-85.61054424965657,10.845265044768286],[-85.61964972949185,10.837153979692262],[-85.62140213175293,10.832587833125558],[-85.61723285579514,10.827210194765728],[-85.61610027383563,10.814457157143275],[-85.61306803957547,10.810542074696919],[-85.61193097597261,10.805382840532491],[-85.61887826519695,10.803599248131952],[-85.624358518283,10.799028626252401],[-85.62556692508868,10.782587909237584],[-85.62140213175293,10.777210272912084],[-85.62026508879575,10.75954774948723],[-85.62831375850175,10.757483180515914],[-85.62973617720571,10.751958406670386],[-85.6327639353605,10.748043263923861],[-85.63422207270521,10.742375730849304],[-85.64494616300085,10.740957738783615],[-85.64583351989153,10.737501983351915]]],[[[-85.61250178586938,10.924998262367517],[-85.61214499117341,10.897574737849679],[-85.60451993527147,10.889922926744612],[-85.60381541706835,10.876741821134896],[-85.59964618025434,10.872545820660294],[-85.60035514766027,10.868407752934642],[-85.60381541706835,10.864925240508576],[-85.60451993527147,10.851744126123556],[-85.60798024880383,10.848257118052388],[-85.60833252083343,10.84583137372748],[-85.60501942434009,10.844984125348526],[-85.60326695510356,10.83816170359219],[-85.58945711933727,10.836930991943083],[-85.5840794853557,10.832766230472863],[-85.56445491794305,10.833898817844672],[-85.56054434449241,10.836931027393755],[-85.55416782003154,10.837501762978874],[-85.55416782003154,10.841666581901599],[-85.55195611660889,10.842232886327105],[-85.54791613162526,10.84536317622732],[-85.54241359086217,10.841100217237255],[-85.51768345292824,10.842277488547552],[-85.50473418713281,10.856122980740677],[-85.50331622895162,10.861647790049952],[-85.4977913543619,10.863065771363795],[-85.48971150834574,10.870267246170837],[-85.4811232855091,10.871399870720536],[-85.47304338005874,10.878601326840029],[-85.46725101711073,10.880086169015936],[-85.45889910120293,10.889454723407097],[-85.45776647995999,10.898042946682297],[-85.45473426463742,10.901958081478632],[-85.45331632952028,10.907482881415815],[-85.44999869917947,10.908334580075547],[-85.44964648948661,10.910755873772057],[-85.44618619845218,10.914242873982802],[-85.44583396393364,10.916668598588636],[-85.44583396393364,10.920833466011334],[-85.44583396393364,10.933332341929232],[-85.45416799202981,10.933332297228947],[-85.45416799202981,10.94166632867981],[-85.45748111797495,10.942518011969758],[-85.45833279354841,10.94583117075029],[-85.46492332518412,10.946187876415179],[-85.47047492892135,10.951708267636493],[-85.47083164370329,10.954165196931152],[-85.53333487837509,10.954165177529083],[-85.53395468733444,10.942656270750586],[-85.54081728348923,10.93693077842829],[-85.54387615669688,10.938067901911458],[-85.54779124437655,10.94110003802736],[-85.55637503441882,10.942232695945915],[-85.56136478683388,10.946098717119682],[-85.56339817015528,10.938161526883727],[-85.57721245448165,10.936930797051629],[-85.58258567635367,10.932766026936926],[-85.58554201356293,10.933898579385922],[-85.59091973599209,10.938067845662177],[-85.60320449756139,10.936832672596893],[-85.61193097597261,10.927209984924467],[-85.61250178586938,10.924998262367517]]],[[[-85.55416782003154,10.658335109332207],[-85.54999856403265,10.65833506356901],[-85.54878570012832,10.653599538947246],[-85.53528793196094,10.654732142766663],[-85.53137735389791,10.657764348156125],[-85.51029026127397,10.658901362862863],[-85.50491254944723,10.663066173058587],[-85.4977913543619,10.66193356791158],[-85.49387632037926,10.658901399042236],[-85.47083164370329,10.658335107447504],[-85.46751854972494,10.659182325735033],[-85.46569920741673,10.66627226005169],[-85.46054449102465,10.670267603662307],[-85.44779144911045,10.671400240071844],[-85.43137754390244,10.686931275277558],[-85.42695411363603,10.688068402263244],[-85.40637533616925,10.707764221907356],[-85.4019564026927,10.708901260927165],[-85.39804576790053,10.711933458608428],[-85.38112342803997,10.713066095286331],[-85.37304356668216,10.720267515694049],[-85.3686246016291,10.721400178421284],[-85.36470951936954,10.724432294678582],[-85.36029050829185,10.725569402555804],[-85.3563754573976,10.728601586984666],[-85.3477917072169,10.729734190014328],[-85.34387662562625,10.732766374021114],[-85.33528838420597,10.733898984715625],[-85.32720850589286,10.741100495040119],[-85.32278953111927,10.742233103220482],[-85.31887888710523,10.7452652117206],[-85.31666717491355,10.745831568177877],[-85.31424143765291,10.746188271186519],[-85.30452502513859,10.755877887172833],[-85.30381153713056,10.7607561796152],[-85.30035126840953,10.764243220551911],[-85.29999903542182,10.78333257395569],[-85.30065899698683,10.803354002379962],[-85.31049127630106,10.804785318133183],[-85.31450451832674,10.807714955663782],[-85.31666717491355,10.80833474074156],[-85.31751885128124,10.811647918155769],[-85.32414951462324,10.813351299848856],[-85.3250012321049,10.81666887481127],[-85.32588858471449,10.820124662767086],[-85.33554253185608,10.821399963303252],[-85.34362243795482,10.82860138120331],[-85.3624977730129,10.829167711697679],[-85.3624977730129,10.81249956384665],[-85.36306854978173,10.785290173735566],[-85.36619888836418,10.781250233640607],[-85.36193148277556,10.775747685986026],[-85.36306854978173,10.76862206668109],[-85.38693367143848,10.743878499053109],[-85.38806627710072,10.73945505810187],[-85.39109844334476,10.735544401569936],[-85.39251643169239,10.730019608205367],[-85.39804576790053,10.728601574900683],[-85.4019564026927,10.72556942481043],[-85.40637533616925,10.72443235286167],[-85.41029041064282,10.721400164721713],[-85.41887870800443,10.720267548621578],[-85.42278933725906,10.717235382311268],[-85.43137754390244,10.716098294566365],[-85.43945746165626,10.708901245801142],[-85.44387640792728,10.707764224388729],[-85.44779144911045,10.704731985714702],[-85.45637521786927,10.70359937120475],[-85.46029037699999,10.700567222135561],[-85.46887853257502,10.699434576775136],[-85.4811232855091,10.688068392234937],[-85.48971150834574,10.686931316985852],[-85.49362212738194,10.683899123628395],[-85.50637511386182,10.682766463547532],[-85.51029026127398,10.67973427193221],[-85.52304330792474,10.678597211936683],[-85.52695834262563,10.675569500746349],[-85.53137735389791,10.674432394248925],[-85.53945723081661,10.667235463502534],[-85.54387615669688,10.666098395076956],[-85.54779124437655,10.66306616116652],[-85.55416782003154,10.662499849402549],[-85.55416782003154,10.658335109332207]]],[[[-85.5416645004132,10.758334876588751],[-85.54081728348923,10.755017288477784],[-85.53749969374593,10.754165656548846],[-85.52257503739158,10.754517868523212],[-85.4933857810698,10.783684841781644],[-85.4892432623631,10.78298035099185],[-85.48575625485809,10.779520109885006],[-85.46424112488704,10.778815496681377],[-85.46041523131561,10.77501193090327],[-85.45242452441002,10.782980343456483],[-85.44340815790346,10.783684861545742],[-85.4399256671613,10.787145108096011],[-85.43507412504907,10.787854092530448],[-85.42742226981447,10.79547918968229],[-85.42257527596809,10.796188222486217],[-85.41909270516032,10.799648474971294],[-85.39340827785608,10.800352962177708],[-85.3899257253957,10.803813249096901],[-85.37674018285387,10.804517822957713],[-85.36909278809557,10.812147295947579],[-85.3624977730129,10.81249956384665],[-85.3624977730129,10.829167711697679],[-85.3688787514899,10.829734027543179],[-85.3782473448826,10.83808144589544],[-85.3797322463009,10.843878257074598],[-85.39526770087492,10.860287746561413],[-85.3964003691192,10.864711205048279],[-85.40776662326614,10.876955861524138],[-85.40918457011655,10.882480749785522],[-85.4147093741397,10.883898738766687],[-85.4352881369568,10.903599005102366],[-85.43749991110026,10.90416529722789],[-85.43785212116106,10.91075585499711],[-85.44337699355638,10.916307426823264],[-85.44583396393364,10.916668598588636],[-85.44618619845218,10.914242873982802],[-85.44964648948661,10.910755873772057],[-85.44999869917947,10.908334580075547],[-85.44943245566628,10.881120691694418],[-85.44629322189094,10.877076299058574],[-85.45359722856014,10.868876000178151],[-85.45506873800154,10.863146080998309],[-85.46862437909012,10.850566931367897],[-85.47460402373316,10.849033012143028],[-85.47859941826044,10.843878306420251],[-85.4797319958768,10.831120747170486],[-85.48276422348007,10.827210172573611],[-85.48390127472135,10.822791157822598],[-85.48693350386995,10.818876117300752],[-85.48846740402286,10.812896436491405],[-85.49362212738194,10.808901069913524],[-85.50637511386182,10.807764050851196],[-85.51445505429436,10.800567062541502],[-85.5201716193049,10.799099951589032],[-85.52140233932343,10.785290160399219],[-85.52443450077173,10.781375073206192],[-85.52596843303706,10.775395385929334],[-85.53112318082907,10.771400086716122],[-85.53679067975482,10.769946369173992],[-85.53820869837776,10.75922226912967],[-85.5416645004132,10.758334876588751]]]]}}